[{"OBJECT_NAME":"SENTINEL-5P","OBJECT_ID":"2017-064A","EPOCH":"2026-03-09T19:35:06.853056","MEAN_MOTION":14.19549302,"ECCENTRICITY":0.00010631,"INCLINATION":98.7881,"RA_OF_ASC_NODE":11.6741,"ARG_OF_PERICENTER":80.585,"MEAN_ANOMALY":279.5446,"EPHEMERIS_TYPE":0,"CLASSIFICATION_TYPE":"U","NORAD_CAT_ID":42969,"ELEMENT_SET_NO":999,"REV_AT_EPOCH":43546,"BSTAR":7.6086876e-5,"MEAN_MOTION_DOT":1.16e-6,"MEAN_MOTION_DDOT":0},{"OBJECT_NAME":"CZ-4 DEB","OBJECT_ID":"1990-081BY","EPOCH":"2026-03-09T11:05:29.601888","MEAN_MOTION":14.2744346,"ECCENTRICITY":0.00348905,"INCLINATION":98.5511,"RA_OF_ASC_NODE":64.167,"ARG_OF_PERICENTER":313.1623,"MEAN_ANOMALY":199.1957,"EPHEMERIS_TYPE":0,"CLASSIFICATION_TYPE":"U","NORAD_CAT_ID":20915,"ELEMENT_SET_NO":999,"REV_AT_EPOCH":83458,"BSTAR":0.00045771988,"MEAN_MOTION_DOT":1.087e-5,"MEAN_MOTION_DDOT":0}]
